NORAD_CAT_ID,OBJECT_NAME,OBJECT_TYPE,EPOCH,MEAN_MOTION,ECCENTRICITY,INCLINATION,RA_OF_ASC_NODE,ARG_OF_PERICENTER,MEAN_ANOMALY,BSTAR,MEAN_MOTION_DOT,MEAN_MOTION_DDOT,TLE_LINE0,TLE_LINE1,TLE_LINE2,SEMIMAJOR_AXIS,PERIOD,APOGEE,PERIGEE,DECAYED
51127.0,STARLINK-3370,PAYLOAD,2022-06-24 12:59:27,15.08831155,0.0001469,53.2188,258.1241,53.7064,306.4064,7.9738e-05,9.81e-06,0.0,0 STARLINK-3370,1 51127U 22005Z   22175.54129360  .00000981  00000-0  79738-4 0  9998,2 51127  53.2188 258.1241 0001469  53.7064 306.4064 15.08831155 24302,6917.906999999997,95.438,540.789,538.756,0.0
51127.0,STARLINK-3370,PAYLOAD,2022-06-25 12:50:13,15.08848517,0.0001525,53.2187,253.6638,54.347,305.7664,5.335100000000001e-05,5.61e-06,0.0,0 STARLINK-3370,1 51127U 22005Z   22176.53488380  .00000561  00000-0  53351-4 0  9995,2 51127  53.2187 253.6638 0001525  54.3470 305.7664 15.08848517 25570,6917.854,95.437,540.774,538.664,0.0
51127.0,STARLINK-3370,PAYLOAD,2022-06-26 04:44:05,15.08840289,0.0001609,53.2189,250.6902,54.9169,305.1974,3.9186e-05,3.36e-06,0.0,0 STARLINK-3370,1 51127U 22005Z   22177.19728795  .00000336  00000-0  39186-4 0  9995,2 51127  53.2189 250.6902 0001609  54.9169 305.1974 15.08840289 25674,6917.88,95.438,540.8580000000002,538.631,0.0
51127.0,STARLINK-3370,PAYLOAD,2022-06-26 11:05:37,15.08842639,0.000154,53.2185,249.501,53.7023,306.4111,5.5106e-05,5.89e-06,0.0,0 STARLINK-3370,1 51127U 22005Z   22177.46224489  .00000589  00000-0  55106-4 0  9996,2 51127  53.2185 249.5010 0001540  53.7023 306.4111 15.08842639 24595,6917.871999999999,95.437,540.803,538.672,0.0
51127.0,STARLINK-3370,PAYLOAD,2022-06-27 10:56:25,15.08839037,0.0001714,53.2185,245.0412,56.9162,303.1995,-3.3076999999999995e-05,-8.14e-06,0.0,0 STARLINK-3370,1 51127U 22005Z   22178.45584774 -.00000814  00000-0 -33077-4 0  9998,2 51127  53.2185 245.0412 0001714  56.9162 303.1995 15.08839037 25867,6917.8830000000025,95.438,540.934,538.563,0.0
51127.0,STARLINK-3370,PAYLOAD,2022-06-27 12:31:48,15.08838824,0.0001716,53.2184,244.7438,57.0484,303.0673,-3.4336e-05,-8.34e-06,0.0,0 STARLINK-3370,1 51127U 22005Z   22178.52208779 -.00000834  00000-0 -34336-4 0  9995,2 51127  53.2184 244.7438 0001716  57.0484 303.0673 15.08838824 24753,6917.884,95.438,540.936,538.562,0.0
51127.0,STARLINK-3370,PAYLOAD,2022-06-27 15:42:34,15.08836743,0.0001706999999999,53.2179,244.1486,57.6323,302.4835,-4.9219e-05,-1.071e-05,0.0,0 STARLINK-3370,1 51127U 22005Z   22178.65456952 -.00001071  00000-0 -49219-4 0  9997,2 51127  53.2179 244.1486 0001707  57.6323 302.4835 15.08836743 24775,6917.89,95.438,540.936,538.5740000000002,0.0
51127.0,STARLINK-3370,PAYLOAD,2022-06-28 04:25:40,15.08828666,0.0001748,53.2173,241.7697,59.2638,300.8526,-0.00010373,-1.938e-05,0.0,0 STARLINK-3370,1 51127U 22005Z   22179.18449851 -.00001938  00000-0 -10373-3 0  9996,2 51127  53.2173 241.7697 0001748  59.2638 300.8526 15.08828666 25975,6917.915,95.438,540.989,538.571,0.0
51127.0,STARLINK-3370,PAYLOAD,2022-06-28 10:47:13,15.08827282,0.0001645,53.2177,240.5796,64.5843,295.5319,-0.00010652,-1.982e-05,0.0,0 STARLINK-3370,1 51127U 22005Z   22179.44946085 -.00001982  00000-0 -10652-3 0  9995,2 51127  53.2177 240.5796 0001645  64.5843 295.5319 15.08827282 24892,6917.919,95.438,540.922,538.646,0.0
51127.0,STARLINK-3370,PAYLOAD,2022-06-28 13:57:59,15.08826605,0.0001653,53.2177,239.985,64.2056,295.9107,-0.00010737,-1.996e-05,0.0,0 STARLINK-3370,1 51127U 22005Z   22179.58194232 -.00001996  00000-0 -10737-3 0  9998,2 51127  53.2177 239.9850 0001653  64.2056 295.9107 15.08826605 24917,6917.920999999999,95.438,540.93,538.643,0.0
51127.0,STARLINK-3370,PAYLOAD,2022-06-29 12:13:23,15.08829305,0.0001582,53.2184,235.8226,57.8704,302.2441,-1.2768e-05,-4.91e-06,0.0,0 STARLINK-3370,1 51127U 22005Z   22180.50930323 -.00000491  00000-0 -12768-4 0  9997,2 51127  53.2184 235.8226 0001582  57.8704 302.2441 15.08829305 26179,6917.913000000001,95.438,540.872,538.684,0.0
51127.0,STARLINK-3370,PAYLOAD,2022-06-29 13:48:47,15.08828861,0.0001606,53.2184,235.5255,56.9588,303.1558,-1.6092e-05,-5.44e-06,0.0,0 STARLINK-3370,1 51127U 22005Z   22180.57554420 -.00000544  00000-0 -16092-4 0  9997,2 51127  53.2184 235.5255 0001606  56.9588 303.1558 15.08828861 25067,6917.9140000000025,95.438,540.89,538.668,0.0
51127.0,STARLINK-3370,PAYLOAD,2022-06-30 13:39:34,15.08829294,0.0001644,53.2183,231.0658,51.2583,308.8556,6.517300000000001e-05,7.49e-06,0.0,0 STARLINK-3370,1 51127U 22005Z   22181.56914880  .00000749  00000-0  65173-4 0  9996,2 51127  53.2183 231.0658 0001644  51.2583 308.8556 15.08829294 26331,6917.913000000001,95.438,540.915,538.641,0.0
51127.0,STARLINK-3370,PAYLOAD,2022-06-30 20:01:07,15.08830908,0.0001655,53.2182,229.8766,50.8992,309.2147,6.442e-05,7.37e-06,0.0,0 STARLINK-3370,1 51127U 22005Z   22181.83410932  .00000737  00000-0  64420-4 0  9996,2 51127  53.2182 229.8766 0001655  50.8992 309.2147 15.08830908 25251,6917.908,95.438,540.918,538.628,0.0
51127.0,STARLINK-3370,PAYLOAD,2022-07-01 11:54:58,15.08835866,0.0001673,53.2182,226.9029,50.6447,309.4694,6.008800000000001e-05,6.68e-06,0.0,0 STARLINK-3370,1 51127U 22005Z   22182.49650899  .00000668  00000-0  60088-4 0  9996,2 51127  53.2182 226.9029 0001673  50.6447 309.4694 15.08835866 25352,6917.893,95.438,540.915,538.601,0.0
51127.0,STARLINK-3370,PAYLOAD,2022-07-01 19:51:54,15.08836957,0.0001686,53.2181,225.4162,50.7154,309.3987,5.2254e-05,5.44e-06,0.0,0 STARLINK-3370,1 51127U 22005Z   22182.82770913  .00000544  00000-0  52254-4 0  9992,2 51127  53.2181 225.4162 0001686  50.7154 309.3987 15.08836957 25405,6917.89,95.438,540.9209999999998,538.5880000000002,0.0
51127.0,STARLINK-3370,PAYLOAD,2022-07-02 03:48:49,15.08840308,0.0001685,53.2183,223.9292,50.5739,309.5402,3.944e-05,3.4e-06,0.0,0 STARLINK-3370,1 51127U 22005Z   22183.15890791  .00000340  00000-0  39440-4 0  9992,2 51127  53.2183 223.9292 0001685  50.5739 309.5402 15.08840308 26578,6917.879,95.438,540.91,538.5790000000002,0.0
51127.0,STARLINK-3370,PAYLOAD,2022-07-02 11:45:45,15.08842527,0.0001715,53.2184,222.4424,50.8153,309.2992,5.2732e-05,5.51e-06,0.0,0 STARLINK-3370,1 51127U 22005Z   22183.49010566  .00000551  00000-0  52732-4 0  9996,2 51127  53.2184 222.4424 0001715  50.8153 309.2992 15.08842527 25505,6917.873000000001,95.437,540.924,538.5509999999998,0.0
51127.0,STARLINK-3370,PAYLOAD,2022-07-03 10:01:08,15.08849671,0.0001730999999999,53.2183,218.2794,51.2444,308.8702,6.5109e-05,7.49e-06,0.0,0 STARLINK-3370,1 51127U 22005Z   22184.41745683  .00000749  00000-0  65109-4 0  9995,2 51127  53.2183 218.2794 0001731  51.2444 308.8702 15.08849671 25649,6917.851,95.437,540.913,538.518,0.0
51127.0,STARLINK-3370,PAYLOAD,2022-07-03 19:33:26,15.08850854,0.0001754,53.2183,216.4954,51.4776,308.6373,6.9085e-05,8.12e-06,0.0,0 STARLINK-3370,1 51127U 22005Z   22184.81489308  .00000812  00000-0  69085-4 0  9996,2 51127  53.2183 216.4954 0001754  51.4776 308.6373 15.08850854 25706,6917.847,95.437,540.9259999999998,538.499,0.0
51127.0,STARLINK-3370,PAYLOAD,2022-07-04 11:27:19,15.08838699,0.000179,53.2186,213.5224,53.9068,306.209,-5.5442e-05,-1.17e-05,0.0,0 STARLINK-3370,1 51127U 22005Z   22185.47730347 -.00001170  00000-0 -55442-4 0  9993,2 51127  53.2186 213.5224 0001790  53.9068 306.2090 15.08838699 25802,6917.884,95.438,540.988,538.511,0.0
51127.0,STARLINK-3370,PAYLOAD,2022-07-04 19:24:15,15.08831117,0.0001798,53.2184,212.0353,54.195,305.9209,-0.00011983,-2.194e-05,0.0,0 STARLINK-3370,1 51127U 22005Z   22185.80851084 -.00002194  00000-0 -11983-3 0  9990,2 51127  53.2184 212.0353 0001798  54.1950 305.9209 15.08831117 25859,6917.908,95.438,541.016,538.529,0.0
51127.0,STARLINK-3370,PAYLOAD,2022-07-05 11:18:06,15.08831757,0.0001808,53.2183,209.0611,55.6508,304.4655,-0.00012594,-2.291e-05,0.0,0 STARLINK-3370,1 51127U 22005Z   22186.47091292 -.00002291  00000-0 -12594-3 0  9998,2 51127  53.2183 209.0611 0001808  55.6508 304.4655 15.08831757 25958,6917.906,95.438,541.021,538.52,0.0
51127.0,STARLINK-3370,PAYLOAD,2022-07-06 04:47:21,15.08825482,0.0001821,53.218,205.7906,52.0328,308.0828,-1.6617e-05,-5.52e-06,0.0,0 STARLINK-3370,1 51127U 22005Z   22187.19955697 -.00000552  00000-0 -16617-4 0  9995,2 51127  53.2180 205.7906 0001821  52.0328 308.0828 15.08825482 27188,6917.925,95.438,541.05,538.53,0.0
51127.0,STARLINK-3370,PAYLOAD,2022-07-06 11:08:54,15.08825721,0.0001855,53.2179,204.6015,50.3875,309.7281,-1.9535e-05,-5.99e-06,0.0,0 STARLINK-3370,1 51127U 22005Z   22187.46451953 -.00000599  00000-0 -19535-4 0  9994,2 51127  53.2179 204.6015 0001855  50.3875 309.7281 15.08825721 26108,6917.924,95.438,541.072,538.506,0.0
51127.0,STARLINK-3370,PAYLOAD,2022-07-07 07:48:55,15.08824391,0.0001908,53.2179,200.736,50.725,309.3911,4.3974e-05,4.12e-06,0.0,0 STARLINK-3370,1 51127U 22005Z   22188.32564697  .00000412  00000-0  43974-4 0  9996,2 51127  53.2179 200.7360 0001908  50.7250 309.3911 15.08824391 26230,6917.928000000001,95.439,541.113,538.4730000000002,0.0
51127.0,STARLINK-3370,PAYLOAD,2022-07-07 17:21:14,15.08826024,0.0001936,53.2179,198.952,51.213,308.9035,4.5353e-05,4.33e-06,0.0,0 STARLINK-3370,1 51127U 22005Z   22188.72308977  .00000433  00000-0  45353-4 0  9993,2 51127  53.2179 198.9520 0001936  51.2130 308.9035 15.08826024 26293,6917.9230000000025,95.438,541.127,538.4490000000002,0.0
51127.0,STARLINK-3370,PAYLOAD,2022-07-08 09:15:06,15.08830148,0.0001972,53.2179,195.9785,52.466,307.6511,5.8003e-05,6.35e-06,0.0,0 STARLINK-3370,1 51127U 22005Z   22189.38549206  .00000635  00000-0  58003-4 0  9998,2 51127  53.2179 195.9785 0001972  52.4660 307.6511 15.08830148 27517,6917.911,95.438,541.14,538.411,0.0
51127.0,STARLINK-3370,PAYLOAD,2022-07-08 17:12:02,15.08832458,0.0001991,53.2179,194.4917,52.6761,307.4412,6.7994e-05,7.94e-06,0.0,0 STARLINK-3370,1 51127U 22005Z   22189.71669209  .00000794  00000-0  67994-4 0  9996,2 51127  53.2179 194.4917 0001991  52.6761 307.4412 15.08832458 26448,6917.903,95.438,541.146,538.391,0.0
